{"type":"Topology","arcs":[],"objects":{"export":{"type":"GeometryCollection","geometries":[{"type":"Point","coordinates":[-15.4179949,28.0790604],"properties":{"@id":"node/276263891","highway":"crossing"},"id":"node/276263891"},{"type":"Point","coordinates":[-15.4189451,28.0825068],"properties":{"@id":"node/276263897","highway":"crossing"},"id":"node/276263897"},{"type":"Point","coordinates":[-15.4175265,28.0733042],"properties":{"@id":"node/276263975","crossing":"marked","crossing:markings":"zebra","highway":"crossing","tactile_paving":"no"},"id":"node/276263975"},{"type":"Point","coordinates":[-15.4307757,28.1427659],"properties":{"@id":"node/319143435","highway":"traffic_signals","source":"survey"},"id":"node/319143435"},{"type":"Point","coordinates":[-15.4289171,28.1473665],"properties":{"@id":"node/319674715","crossing":"pedestrian_signals","crossing:island":"no","crossing:markings":"yes","highway":"crossing"},"id":"node/319674715"},{"type":"Point","coordinates":[-15.4256276,28.149212],"properties":{"@id":"node/319674732","crossing:markings":"yes","crossing:signals":"no","highway":"crossing","kerb":"lowered","tactile_paving":"yes"},"id":"node/319674732"},{"type":"Point","coordinates":[-15.4247042,28.1493815],"properties":{"@id":"node/319674734","highway":"crossing"},"id":"node/319674734"},{"type":"Point","coordinates":[-15.4301503,28.1338669],"properties":{"@id":"node/335685513","highway":"traffic_signals"},"id":"node/335685513"},{"type":"Point","coordinates":[-15.4303293,28.1355692],"properties":{"@id":"node/335689019","highway":"traffic_signals"},"id":"node/335689019"},{"type":"Point","coordinates":[-15.4225843,28.1497672],"properties":{"@id":"node/335692142","highway":"crossing"},"id":"node/335692142"},{"type":"Point","coordinates":[-15.4303495,28.1358494],"properties":{"@id":"node/337351754","highway":"traffic_signals"},"id":"node/337351754"},{"type":"Point","coordinates":[-15.4187153,28.0900377],"properties":{"@id":"node/338946197","highway":"crossing"},"id":"node/338946197"},{"type":"Point","coordinates":[-15.4196156,28.0865032],"properties":{"@id":"node/338946398","highway":"crossing"},"id":"node/338946398"},{"type":"Point","coordinates":[-15.4156702,28.0944058],"properties":{"@id":"node/344665325","highway":"crossing"},"id":"node/344665325"},{"type":"Point","coordinates":[-15.4151146,28.0952519],"properties":{"@id":"node/344665326","crossing":"uncontrolled","crossing:markings":"yes","highway":"crossing"},"id":"node/344665326"},{"type":"Point","coordinates":[-15.4142933,28.0959375],"properties":{"@id":"node/366980979","button_operated":"yes","crossing":"traffic_signals","highway":"crossing","kerb":"flush","tactile_paving":"yes","traffic_signals:sound":"no","traffic_signals:vibration":"no"},"id":"node/366980979"},{"type":"Point","coordinates":[-15.4136042,28.0944995],"properties":{"@id":"node/366981015","crossing":"uncontrolled","crossing:markings":"yes","highway":"crossing"},"id":"node/366981015"},{"type":"Point","coordinates":[-15.4171541,28.0858839],"properties":{"@id":"node/366982955","highway":"stop"},"id":"node/366982955"},{"type":"Point","coordinates":[-15.4306001,28.1386896],"properties":{"@id":"node/435545307","button_operated":"yes","crossing":"traffic_signals","crossing_ref":"zebra","highway":"crossing","tactile_paving":"yes","traffic_signals:sound":"no","traffic_signals:vibration":"no"},"id":"node/435545307"},{"type":"Point","coordinates":[-15.4307562,28.1405368],"properties":{"@id":"node/435646810","highway":"crossing"},"id":"node/435646810"},{"type":"Point","coordinates":[-15.4302672,28.1347545],"properties":{"@id":"node/435950799","highway":"traffic_signals"},"id":"node/435950799"},{"type":"Point","coordinates":[-15.4302819,28.1349036],"properties":{"@id":"node/435950800","highway":"traffic_signals"},"id":"node/435950800"},{"type":"Point","coordinates":[-15.4303629,28.1359476],"properties":{"@id":"node/436025405","button_operated":"no","crossing":"traffic_signals","highway":"crossing","kerb":"flush","tactile_paving":"yes"},"id":"node/436025405"},{"type":"Point","coordinates":[-15.4307681,28.1400072],"properties":{"@id":"node/436044073","bench":"yes","bin":"no","bus":"yes","departures_board":"realtime","highway":"bus_stop","lit":"yes","name":"Parque Santa Catalina","operator":"Guaguas Municipales S.A.","public_transport":"platform","ref":"26","route_ref":"1;12;L1","shelter":"yes","tactile_paving":"no","website":"https://www.guaguas.com/","@relations":[{"role":"platform","rel":18185540,"reltags":{"colour":"#FF0000","from":"Puerto","name":"Línea 12: Puerto → Hoya de La Plata","network":"Guaguas Municipales","public_transport:version":"2","ref":"12","route":"bus","to":"Hoya de La Plata","type":"route"}}]},"id":"node/436044073"},{"type":"Point","coordinates":[-15.4253969,28.1225886],"properties":{"@id":"node/436050477","highway":"motorway_junction"},"id":"node/436050477"},{"type":"Point","coordinates":[-15.4238484,28.1208588],"properties":{"@id":"node/442370982","highway":"crossing"},"id":"node/442370982"},{"type":"Point","coordinates":[-15.4133009,28.1029492],"properties":{"@id":"node/446996097","crossing":"uncontrolled","highway":"crossing","tactile_paving":"yes"},"id":"node/446996097"},{"type":"Point","coordinates":[-15.4265676,28.1481804],"properties":{"@id":"node/447581154","crossing":"uncontrolled","crossing:markings":"yes","highway":"crossing"},"id":"node/447581154"},{"type":"Point","coordinates":[-15.4301,28.1325269],"properties":{"@id":"node/513474337","bench":"yes","bin":"yes","bus":"yes","highway":"bus_stop","lit":"no","name":"León y Castillo (Edificio José Antonio)","operator":"Guaguas Municipales S.A.","public_transport":"platform","ref":"22","shelter":"yes","tactile_paving":"yes","@relations":[{"role":"platform","rel":18185540,"reltags":{"colour":"#FF0000","from":"Puerto","name":"Línea 12: Puerto → Hoya de La Plata","network":"Guaguas Municipales","public_transport:version":"2","ref":"12","route":"bus","to":"Hoya de La Plata","type":"route"}}]},"id":"node/513474337"},{"type":"Point","coordinates":[-15.4124513,28.0955503],"properties":{"@id":"node/1107790043","highway":"crossing"},"id":"node/1107790043"},{"type":"Point","coordinates":[-15.4287007,28.1477699],"properties":{"@id":"node/1338123338","crossing":"marked","crossing:island":"no","crossing:markings":"yes","highway":"crossing","kerb":"flush"},"id":"node/1338123338"},{"type":"Point","coordinates":[-15.4278463,28.1479535],"properties":{"@id":"node/1338123390","crossing:island":"yes","crossing:markings":"yes","crossing:signals":"no","highway":"crossing","kerb":"lowered","tactile_paving":"yes"},"id":"node/1338123390"},{"type":"Point","coordinates":[-15.4130727,28.1049046],"properties":{"@id":"node/1801587749","highway":"motorway_junction"},"id":"node/1801587749"},{"type":"Point","coordinates":[-15.4132133,28.1035269],"properties":{"@id":"node/1801587760","highway":"crossing"},"id":"node/1801587760"},{"type":"Point","coordinates":[-15.412304,28.0972202],"properties":{"@id":"node/1801587800","crossing":"marked","crossing:markings":"yes","highway":"crossing","tactile_paving":"yes"},"id":"node/1801587800"},{"type":"Point","coordinates":[-15.4308051,28.1421948],"properties":{"@id":"node/1814203922","highway":"traffic_signals"},"id":"node/1814203922"},{"type":"Point","coordinates":[-15.4180159,28.0705512],"properties":{"@id":"node/1877027853","highway":"crossing"},"id":"node/1877027853"},{"type":"Point","coordinates":[-15.4177051,28.0723858],"properties":{"@id":"node/1904135773","highway":"crossing"},"id":"node/1904135773"},{"type":"Point","coordinates":[-15.4151634,28.1089897],"properties":{"@id":"node/2028077091","bus":"yes","highway":"bus_stop","name":"Av. de Canarias (San Telmo)","network":"Guaguas Municipales","operator":"Guaguas Municipales S.A","public_transport":"platform","ref":"36","shelter":"yes","wikidata":"Q20850839","@relations":[{"role":"platform","rel":18185540,"reltags":{"colour":"#FF0000","from":"Puerto","name":"Línea 12: Puerto → Hoya de La Plata","network":"Guaguas Municipales","public_transport:version":"2","ref":"12","route":"bus","to":"Hoya de La Plata","type":"route"}}]},"id":"node/2028077091"},{"type":"Point","coordinates":[-15.4272209,28.125131],"properties":{"@id":"node/2138979782","highway":"speed_camera","maxspeed":"80","note":"F080 ZEQU Av. Canarias Parque Romano DIR Sur CL"},"id":"node/2138979782"},{"type":"Point","coordinates":[-15.4136461,28.0955687],"properties":{"@id":"node/2315780184","crossing":"traffic_signals","highway":"crossing"},"id":"node/2315780184"},{"type":"Point","coordinates":[-15.4149174,28.0960424],"properties":{"@id":"node/2315784614","highway":"give_way"},"id":"node/2315784614"},{"type":"Point","coordinates":[-15.4150888,28.0957511],"properties":{"@id":"node/2315788895","crossing":"uncontrolled","crossing:markings":"yes","highway":"crossing"},"id":"node/2315788895"},{"type":"Point","coordinates":[-15.4195607,28.0879114],"properties":{"@id":"node/2315939918","highway":"crossing"},"id":"node/2315939918"},{"type":"Point","coordinates":[-15.4180027,28.0860489],"properties":{"@id":"node/2315939932","crossing":"marked","crossing:markings":"yes","highway":"crossing"},"id":"node/2315939932"},{"type":"Point","coordinates":[-15.4132651,28.0941727],"properties":{"@id":"node/2577411561","highway":"crossing"},"id":"node/2577411561"},{"type":"Point","coordinates":[-15.4236882,28.1207372],"properties":{"@id":"node/2763827000","highway":"traffic_signals"},"id":"node/2763827000"},{"type":"Point","coordinates":[-15.4237971,28.1208161],"properties":{"@id":"node/2763827006","highway":"traffic_signals"},"id":"node/2763827006"},{"type":"Point","coordinates":[-15.4138764,28.1026675],"properties":{"@id":"node/3101829294","highway":"crossing"},"id":"node/3101829294"},{"type":"Point","coordinates":[-15.4141298,28.1027716],"properties":{"@id":"node/3101829296","crossing":"marked","highway":"crossing","tactile_paving":"yes"},"id":"node/3101829296"},{"type":"Point","coordinates":[-15.4141519,28.1028045],"properties":{"@id":"node/3101829297","highway":"traffic_signals"},"id":"node/3101829297"},{"type":"Point","coordinates":[-15.4307924,28.1422552],"properties":{"@id":"node/3188243087","button_operated":"no","crossing":"traffic_signals","highway":"crossing","kerb":"lowered","tactile_paving":"yes","traffic_signals:sound":"no","traffic_signals:vibration":"no"},"id":"node/3188243087"},{"type":"Point","coordinates":[-15.4307727,28.1428289],"properties":{"@id":"node/3188243088","crossing":"traffic_signals","highway":"crossing","tactile_paving":"yes"},"id":"node/3188243088"},{"type":"Point","coordinates":[-15.4304295,28.1438844],"properties":{"@id":"node/3188243090","crossing":"uncontrolled","highway":"crossing","tactile_paving":"yes"},"id":"node/3188243090"},{"type":"Point","coordinates":[-15.4289026,28.1474062],"properties":{"@id":"node/3188243100","crossing":"marked","crossing:island":"no","highway":"crossing","tactile_paving":"yes"},"id":"node/3188243100"},{"type":"Point","coordinates":[-15.4273879,28.1480296],"properties":{"@id":"node/3188243102","highway":"crossing"},"id":"node/3188243102"},{"type":"Point","coordinates":[-15.4234978,28.1496103],"properties":{"@id":"node/3188243106","crossing":"traffic_signals","highway":"crossing","tactile_paving":"yes"},"id":"node/3188243106"},{"type":"Point","coordinates":[-15.422104,28.1499624],"properties":{"@id":"node/3188243110","highway":"crossing"},"id":"node/3188243110"},{"type":"Point","coordinates":[-15.4302756,28.1348398],"properties":{"@id":"node/3188313525","highway":"crossing"},"id":"node/3188313525"},{"type":"Point","coordinates":[-15.4191229,28.0847993],"properties":{"@id":"node/3188464947","crossing":"marked","crossing:markings":"yes","highway":"crossing"},"id":"node/3188464947"},{"type":"Point","coordinates":[-15.4172377,28.0844097],"properties":{"@id":"node/3307538236","highway":"crossing"},"id":"node/3307538236"},{"type":"Point","coordinates":[-15.4177915,28.0845506],"properties":{"@id":"node/3307538239","highway":"crossing"},"id":"node/3307538239"},{"type":"Point","coordinates":[-15.4303564,28.1351256],"properties":{"@id":"node/3437235800","bench":"yes","bin":"yes","bus":"yes","highway":"bus_stop","name":"Presidente Alvear, 17","operator":"Guaguas Municipales S.A.","public_transport":"platform","shelter":"no","@relations":[{"role":"platform","rel":18185540,"reltags":{"colour":"#FF0000","from":"Puerto","name":"Línea 12: Puerto → Hoya de La Plata","network":"Guaguas Municipales","public_transport:version":"2","ref":"12","route":"bus","to":"Hoya de La Plata","type":"route"}}]},"id":"node/3437235800"},{"type":"Point","coordinates":[-15.4169395,28.0929252],"properties":{"@id":"node/4228091892","bus":"yes","highway":"bus_stop","name":"Córdoba, 40","operator":"Guaguas Municipales S.A.","public_transport":"platform","ref":"107","@relations":[{"role":"platform","rel":18185540,"reltags":{"colour":"#FF0000","from":"Puerto","name":"Línea 12: Puerto → Hoya de La Plata","network":"Guaguas Municipales","public_transport:version":"2","ref":"12","route":"bus","to":"Hoya de La Plata","type":"route"}}]},"id":"node/4228091892"},{"type":"Point","coordinates":[-15.4182568,28.0907716],"properties":{"@id":"node/4228092990","bus":"yes","highway":"bus_stop","name":"Córdoba, frente 31","operator":"Guaguas Municipales S.A.","public_transport":"platform","ref":"109","shelter":"yes","@relations":[{"role":"platform","rel":18185540,"reltags":{"colour":"#FF0000","from":"Puerto","name":"Línea 12: Puerto → Hoya de La Plata","network":"Guaguas Municipales","public_transport:version":"2","ref":"12","route":"bus","to":"Hoya de La Plata","type":"route"}}]},"id":"node/4228092990"},{"type":"Point","coordinates":[-15.4195875,28.0880156],"properties":{"@id":"node/4228105192","bus":"yes","highway":"bus_stop","name":"Córdoba, frente 49","operator":"Guaguas Municipales S.A.","public_transport":"platform","ref":"113","shelter":"yes","@relations":[{"role":"platform","rel":18185540,"reltags":{"colour":"#FF0000","from":"Puerto","name":"Línea 12: Puerto → Hoya de La Plata","network":"Guaguas Municipales","public_transport:version":"2","ref":"12","route":"bus","to":"Hoya de La Plata","type":"route"}}]},"id":"node/4228105192"},{"type":"Point","coordinates":[-15.4145083,28.09602],"properties":{"@id":"node/4228110890","bench":"yes","bin":"no","bus":"yes","highway":"bus_stop","lit":"yes","name":"Eufemiano Jurado (Reyes Católicos)","operator":"Guaguas Municipales S.A.","public_transport":"platform","ref":"640","shelter":"yes","tactile_paving":"no","@relations":[{"role":"platform","rel":18185540,"reltags":{"colour":"#FF0000","from":"Puerto","name":"Línea 12: Puerto → Hoya de La Plata","network":"Guaguas Municipales","public_transport:version":"2","ref":"12","route":"bus","to":"Hoya de La Plata","type":"route"}}]},"id":"node/4228110890"},{"type":"Point","coordinates":[-15.4134095,28.1028447],"properties":{"@id":"node/4228112589","bench":"yes","bin":"yes","bus":"yes","highway":"bus_stop","name":"Mercado Vegueta","public_transport":"platform","ref":"895","shelter":"no","tactile_paving":"no","@relations":[{"role":"platform","rel":18185540,"reltags":{"colour":"#FF0000","from":"Puerto","name":"Línea 12: Puerto → Hoya de La Plata","network":"Guaguas Municipales","public_transport:version":"2","ref":"12","route":"bus","to":"Hoya de La Plata","type":"route"}}]},"id":"node/4228112589"},{"type":"Point","coordinates":[-15.4177996,28.0859651],"properties":{"@id":"node/4228112689","bus":"yes","highway":"bus_stop","name":"Córdoba, 54","operator":"Guaguas Municipales S.A.","public_transport":"platform","ref":"115","@relations":[{"role":"platform","rel":18185540,"reltags":{"colour":"#FF0000","from":"Puerto","name":"Línea 12: Puerto → Hoya de La Plata","network":"Guaguas Municipales","public_transport:version":"2","ref":"12","route":"bus","to":"Hoya de La Plata","type":"route"}}]},"id":"node/4228112689"},{"type":"Point","coordinates":[-15.4172274,28.085258],"properties":{"@id":"node/4228112690","bus":"yes","highway":"bus_stop","name":"Alicante (colegio Islas Canarias)","public_transport":"platform","ref":"117","@relations":[{"role":"platform","rel":18185540,"reltags":{"colour":"#FF0000","from":"Puerto","name":"Línea 12: Puerto → Hoya de La Plata","network":"Guaguas Municipales","public_transport:version":"2","ref":"12","route":"bus","to":"Hoya de La Plata","type":"route"}}]},"id":"node/4228112690"},{"type":"Point","coordinates":[-15.4300724,28.1331458],"properties":{"@id":"node/4292714825","button_operated":"no","crossing":"traffic_signals","highway":"crossing","tactile_paving":"yes"},"id":"node/4292714825"},{"type":"Point","coordinates":[-15.4301635,28.1339396],"properties":{"@id":"node/4292714837","button_operated":"no","crossing":"traffic_signals","highway":"crossing","tactile_paving":"yes"},"id":"node/4292714837"},{"type":"Point","coordinates":[-15.43025,28.134596],"properties":{"@id":"node/4294222819","button_operated":"no","crossing":"traffic_signals","highway":"crossing","tactile_paving":"yes"},"id":"node/4294222819"},{"type":"Point","coordinates":[-15.4302859,28.134936],"properties":{"@id":"node/4294222823","bicycle":"yes","crossing":"traffic_signals","highway":"crossing"},"id":"node/4294222823"},{"type":"Point","coordinates":[-15.4304444,28.1369423],"properties":{"@id":"node/4294222875","highway":"crossing"},"id":"node/4294222875"},{"type":"Point","coordinates":[-15.4304984,28.1377207],"properties":{"@id":"node/4294223091","highway":"crossing"},"id":"node/4294223091"},{"type":"Point","coordinates":[-15.4306249,28.143381],"properties":{"@id":"node/4294223126","crossing":"marked","crossing:markings":"yes","highway":"crossing","kerb":"lowered","tactile_paving":"yes"},"id":"node/4294223126"},{"type":"Point","coordinates":[-15.4236048,28.1206953],"properties":{"@id":"node/4306257385","crossing":"traffic_signals","highway":"crossing"},"id":"node/4306257385"},{"type":"Point","coordinates":[-15.416993,28.0926959],"properties":{"@id":"node/4325236346","highway":"crossing"},"id":"node/4325236346"},{"type":"Point","coordinates":[-15.4165293,28.0933896],"properties":{"@id":"node/4325236354","highway":"crossing"},"id":"node/4325236354"},{"type":"Point","coordinates":[-15.413547,28.0946443],"properties":{"@id":"node/4325236359","bus":"yes","highway":"bus_stop","name":"Eufemiano Jurado (Juzgados)","operator":"Guaguas Municipales S.A.","public_transport":"platform","ref":"634","@relations":[{"role":"platform","rel":18185540,"reltags":{"colour":"#FF0000","from":"Puerto","name":"Línea 12: Puerto → Hoya de La Plata","network":"Guaguas Municipales","public_transport:version":"2","ref":"12","route":"bus","to":"Hoya de La Plata","type":"route"}}]},"id":"node/4325236359"},{"type":"Point","coordinates":[-15.4154528,28.0949062],"properties":{"@id":"node/4325236364","bus":"yes","highway":"bus_stop","name":"Córdoba (Bomberos Vegueta)","operator":"Guaguas Municipales S.A.","public_transport":"platform","ref":"644","@relations":[{"role":"platform","rel":18185540,"reltags":{"colour":"#FF0000","from":"Puerto","name":"Línea 12: Puerto → Hoya de La Plata","network":"Guaguas Municipales","public_transport:version":"2","ref":"12","route":"bus","to":"Hoya de La Plata","type":"route"}}]},"id":"node/4325236364"},{"type":"Point","coordinates":[-15.4123914,28.096253],"properties":{"@id":"node/4325236380","highway":"crossing"},"id":"node/4325236380"},{"type":"Point","coordinates":[-15.4171748,28.0851328],"properties":{"@id":"node/4327964715","crossing":"marked","crossing:markings":"yes","highway":"crossing"},"id":"node/4327964715"},{"type":"Point","coordinates":[-15.4176529,28.0915484],"properties":{"@id":"node/4327964779","highway":"crossing"},"id":"node/4327964779"},{"type":"Point","coordinates":[-15.4175114,28.0772754],"properties":{"@id":"node/4328112787","highway":"crossing"},"id":"node/4328112787"},{"type":"Point","coordinates":[-15.4173407,28.0764149],"properties":{"@id":"node/4328112788","bus":"yes","highway":"bus_stop","name":"Ciudad Deportiva Gran Canaria","public_transport":"platform","ref":"95","@relations":[{"role":"platform","rel":18185540,"reltags":{"colour":"#FF0000","from":"Puerto","name":"Línea 12: Puerto → Hoya de La Plata","network":"Guaguas Municipales","public_transport:version":"2","ref":"12","route":"bus","to":"Hoya de La Plata","type":"route"}}]},"id":"node/4328112788"},{"type":"Point","coordinates":[-15.4176484,28.0777682],"properties":{"@id":"node/4328112992","highway":"crossing"},"id":"node/4328112992"},{"type":"Point","coordinates":[-15.4183082,28.0801941],"properties":{"@id":"node/4328113025","highway":"crossing"},"id":"node/4328113025"},{"type":"Point","coordinates":[-15.4183876,28.0803322],"properties":{"@id":"node/4328113031","bus":"yes","highway":"bus_stop","name":"Blas Cabrera Felipe (parking hosp. Materno Insular)","public_transport":"platform","ref":"93","@relations":[{"role":"platform","rel":18185540,"reltags":{"colour":"#FF0000","from":"Puerto","name":"Línea 12: Puerto → Hoya de La Plata","network":"Guaguas Municipales","public_transport:version":"2","ref":"12","route":"bus","to":"Hoya de La Plata","type":"route"}}]},"id":"node/4328113031"},{"type":"Point","coordinates":[-15.4185529,28.0810812],"properties":{"@id":"node/4328113035","highway":"crossing"},"id":"node/4328113035"},{"type":"Point","coordinates":[-15.4190127,28.0849946],"properties":{"@id":"node/4328113079","crossing":"marked","crossing:markings":"yes","highway":"crossing"},"id":"node/4328113079"},{"type":"Point","coordinates":[-15.4173168,28.0741896],"properties":{"@id":"node/4329170125","highway":"crossing"},"id":"node/4329170125"},{"type":"Point","coordinates":[-15.4172239,28.0746346],"properties":{"@id":"node/4329170135","crossing:markings":"zebra","highway":"crossing"},"id":"node/4329170135"},{"type":"Point","coordinates":[-15.4172357,28.0761433],"properties":{"@id":"node/4329170156","highway":"crossing"},"id":"node/4329170156"},{"type":"Point","coordinates":[-15.417828,28.07184],"properties":{"@id":"node/4330515399","bus":"yes","highway":"bus_stop","name":"Blas Cabrera Felipe (Carrefour)","operator":"Guaguas Municipales S.A.","public_transport":"platform","ref":"77","@relations":[{"role":"platform","rel":18185540,"reltags":{"colour":"#FF0000","from":"Puerto","name":"Línea 12: Puerto → Hoya de La Plata","network":"Guaguas Municipales","public_transport:version":"2","ref":"12","route":"bus","to":"Hoya de La Plata","type":"route"}}]},"id":"node/4330515399"},{"type":"Point","coordinates":[-15.4129324,28.1026441],"properties":{"@id":"node/5044701741","crossing":"uncontrolled","highway":"crossing","tactile_paving":"no"},"id":"node/5044701741"},{"type":"Point","coordinates":[-15.4123881,28.0965315],"properties":{"@id":"node/5086345032","bench":"yes","bin":"yes","bus":"yes","highway":"bus_stop","lit":"yes","name":"Alcalde Díaz Saavedra Navarro (Prudencio Guzmán)","operator":"Guaguas Municipales S.A.","public_transport":"platform","ref":"530","shelter":"yes","tactile_paving":"no","@relations":[{"role":"platform","rel":18185540,"reltags":{"colour":"#FF0000","from":"Puerto","name":"Línea 12: Puerto → Hoya de La Plata","network":"Guaguas Municipales","public_transport:version":"2","ref":"12","route":"bus","to":"Hoya de La Plata","type":"route"}}]},"id":"node/5086345032"},{"type":"Point","coordinates":[-15.4137047,28.0956938],"properties":{"@id":"node/6553497866","highway":"give_way"},"id":"node/6553497866"},{"type":"Point","coordinates":[-15.4171743,28.0924159],"properties":{"@id":"node/6557958767","direction":"backward","highway":"give_way","traffic_sign":"ES:R1"},"id":"node/6557958767"},{"type":"Point","coordinates":[-15.4157723,28.0943476],"properties":{"@id":"node/6558015768","highway":"give_way"},"id":"node/6558015768"},{"type":"Point","coordinates":[-15.4133872,28.0941806],"properties":{"@id":"node/6558051177","highway":"give_way"},"id":"node/6558051177"},{"type":"Point","coordinates":[-15.4221737,28.1499516],"properties":{"@id":"node/7726688513","bus":"yes","public_transport":"stop_position","shelter":"yes"},"id":"node/7726688513"},{"type":"Point","coordinates":[-15.4182677,28.0906683],"properties":{"@id":"node/7815482534","highway":"crossing"},"id":"node/7815482534"},{"type":"Point","coordinates":[-15.4171045,28.0846501],"properties":{"@id":"node/7846817090","direction":"backward","highway":"give_way","traffic_sign":"ES:R1"},"id":"node/7846817090"},{"type":"Point","coordinates":[-15.4178973,28.0711678],"properties":{"@id":"node/7884393815","highway":"give_way"},"id":"node/7884393815"},{"type":"Point","coordinates":[-15.4176197,28.0731458],"properties":{"@id":"node/7884393816","highway":"give_way"},"id":"node/7884393816"},{"type":"Point","coordinates":[-15.4180392,28.0704159],"properties":{"@id":"node/7884393932","highway":"give_way"},"id":"node/7884393932"},{"type":"Point","coordinates":[-15.4151389,28.095872],"properties":{"@id":"node/8656258746","highway":"crossing"},"id":"node/8656258746"},{"type":"Point","coordinates":[-15.4189567,28.0849784],"properties":{"@id":"node/9697920152","highway":"crossing"},"id":"node/9697920152"},{"type":"Point","coordinates":[-15.430003,28.1325894],"properties":{"@id":"node/10833710832","bus":"yes","name":"León y Castillo (Edificio José Antonio)","public_transport":"stop_position"},"id":"node/10833710832"},{"type":"Point","coordinates":[-15.430299,28.1351265],"properties":{"@id":"node/10833710833","bus":"yes","name":"Presidente Alvear, 17","public_transport":"stop_position"},"id":"node/10833710833"},{"type":"Point","coordinates":[-15.4258553,28.1491691],"properties":{"@id":"node/10833710836","bus":"yes","name":"Juan Rejón, 67","public_transport":"stop_position"},"id":"node/10833710836"},{"type":"Point","coordinates":[-15.4307747,28.1407725],"properties":{"@id":"node/10833710838","bus":"yes","name":"Parque Santa Catalina","public_transport":"stop_position","ref":"429"},"id":"node/10833710838"},{"type":"Point","coordinates":[-15.4279539,28.1261527],"properties":{"@id":"node/11507020703","bus":"yes","name":"Ayuntamiento de Las Palmas de G.C","public_transport":"stop_position"},"id":"node/11507020703"},{"type":"Point","coordinates":[-15.4212894,28.1188026],"properties":{"@id":"node/12240012571","bus":"yes","name":"Juan XXIII","public_transport":"stop_position"},"id":"node/12240012571"},{"type":"Point","coordinates":[-15.4172694,28.1133534],"properties":{"@id":"node/12264996798","bench":"yes","bin":"yes","bus":"yes","highway":"bus_stop","lit":"yes","name":"Alc. J. Ramírez Bethencourt (Centro Insular de Deportes)","network":"Guaguas Municipales","operator":"Guaguas Municipales S.A","public_transport":"platform","ref":"38","shelter":"yes","tactile_paving":"no","@relations":[{"role":"platform","rel":18185540,"reltags":{"colour":"#FF0000","from":"Puerto","name":"Línea 12: Puerto → Hoya de La Plata","network":"Guaguas Municipales","public_transport:version":"2","ref":"12","route":"bus","to":"Hoya de La Plata","type":"route"}}]},"id":"node/12264996798"},{"type":"Point","coordinates":[-15.4212269,28.1187004],"properties":{"@id":"node/12264996799","bench":"no","bin":"yes","bus":"yes","highway":"bus_stop","name":"Alc. J. Ramírez Bethencourt (Carvajal)","operator":"Guaguas Municipales S.A.","public_transport":"platform","ref":"40","shelter":"no","tactile_paving":"no","@relations":[{"role":"platform","rel":18185540,"reltags":{"colour":"#FF0000","from":"Puerto","name":"Línea 12: Puerto → Hoya de La Plata","network":"Guaguas Municipales","public_transport:version":"2","ref":"12","route":"bus","to":"Hoya de La Plata","type":"route"}}]},"id":"node/12264996799"},{"type":"Point","coordinates":[-15.4280699,28.1261843],"properties":{"@id":"node/12264996800","bus":"yes","highway":"bus_stop","name":"Alc. J. Ramírez Bethencourt (parque Romano)","public_transport":"platform","ref":"642","@relations":[{"role":"platform","rel":18185540,"reltags":{"colour":"#FF0000","from":"Puerto","name":"Línea 12: Puerto → Hoya de La Plata","network":"Guaguas Municipales","public_transport:version":"2","ref":"12","route":"bus","to":"Hoya de La Plata","type":"route"}}]},"id":"node/12264996800"},{"type":"Point","coordinates":[-15.4221918,28.1500308],"properties":{"@id":"node/12269264945","bus":"yes","highway":"bus_stop","name":"Manuel Becerra (Puerto)","public_transport":"platform","shelter":"no","@relations":[{"role":"platform","rel":18185540,"reltags":{"colour":"#FF0000","from":"Puerto","name":"Línea 12: Puerto → Hoya de La Plata","network":"Guaguas Municipales","public_transport:version":"2","ref":"12","route":"bus","to":"Hoya de La Plata","type":"route"}}]},"id":"node/12269264945"},{"type":"Point","coordinates":[-15.4173347,28.0744345],"properties":{"@id":"node/12272079367","bus":"yes","highway":"bus_stop","name":"Blas Cabrera Felipe, 14","public_transport":"platform","ref":"97","@relations":[{"role":"platform","rel":18185540,"reltags":{"colour":"#FF0000","from":"Puerto","name":"Línea 12: Puerto → Hoya de La Plata","network":"Guaguas Municipales","public_transport:version":"2","ref":"12","route":"bus","to":"Hoya de La Plata","type":"route"}}]},"id":"node/12272079367"},{"type":"Point","coordinates":[-15.4192458,28.0839159],"properties":{"@id":"node/12272079368","bus":"yes","highway":"bus_stop","name":"Blas Cabrera Felipe (iglesia Sta. Clara)","public_transport":"platform","ref":"89","@relations":[{"role":"platform","rel":18185540,"reltags":{"colour":"#FF0000","from":"Puerto","name":"Línea 12: Puerto → Hoya de La Plata","network":"Guaguas Municipales","public_transport:version":"2","ref":"12","route":"bus","to":"Hoya de La Plata","type":"route"}}]},"id":"node/12272079368"},{"type":"Point","coordinates":[-15.418079,28.0697414],"properties":{"@id":"node/12272079370","bus":"yes","highway":"bus_stop","name":"Hoya de La Plata","public_transport":"platform","ref":"934","@relations":[{"role":"platform","rel":18185540,"reltags":{"colour":"#FF0000","from":"Puerto","name":"Línea 12: Puerto → Hoya de La Plata","network":"Guaguas Municipales","public_transport:version":"2","ref":"12","route":"bus","to":"Hoya de La Plata","type":"route"}}]},"id":"node/12272079370"},{"type":"Point","coordinates":[-15.4218871,28.1500002],"properties":{"@id":"node/12277569020","bus":"yes","public_transport":"stop_position","shelter":"yes"},"id":"node/12277569020"},{"type":"Point","coordinates":[-15.4173397,28.0766243],"properties":{"@id":"node/12281863193","highway":"crossing"},"id":"node/12281863193"},{"type":"Point","coordinates":[-15.4285553,28.1478609],"properties":{"@id":"node/12993351686","bus":"yes","highway":"bus_stop","name":"Agustín Millares Sall (Mercado del Puerto)","network":"Guaguas Municipales","network:wikidata":"Q1522237","public_transport":"platform","ref":"112","@relations":[{"role":"platform","rel":18185540,"reltags":{"colour":"#FF0000","from":"Puerto","name":"Línea 12: Puerto → Hoya de La Plata","network":"Guaguas Municipales","public_transport:version":"2","ref":"12","route":"bus","to":"Hoya de La Plata","type":"route"}}]},"id":"node/12993351686"},{"type":"Point","coordinates":[-15.4295711,28.1453019],"properties":{"@id":"node/13015429813","bus":"yes","highway":"bus_stop","name":"Woermann","network":"Guaguas Municipales","public_transport":"platform","ref":"542","@relations":[{"role":"platform","rel":18185540,"reltags":{"colour":"#FF0000","from":"Puerto","name":"Línea 12: Puerto → Hoya de La Plata","network":"Guaguas Municipales","public_transport:version":"2","ref":"12","route":"bus","to":"Hoya de La Plata","type":"route"}}]},"id":"node/13015429813"},{"type":"Point","coordinates":[-15.4259546,28.1484274],"properties":{"@id":"node/13015429815","bench":"yes","bus":"yes","highway":"bus_stop","name":"Castillo de La Luz","operator":"Guaguas Municipales S.A.","public_transport":"platform","ref":"32","@relations":[{"role":"platform","rel":18185540,"reltags":{"colour":"#FF0000","from":"Puerto","name":"Línea 12: Puerto → Hoya de La Plata","network":"Guaguas Municipales","public_transport:version":"2","ref":"12","route":"bus","to":"Hoya de La Plata","type":"route"}}]},"id":"node/13015429815"}]}}}