{"type":"Topology","arcs":[],"objects":{"export":{"type":"GeometryCollection","geometries":[{"type":"Point","coordinates":[-15.4174502,28.0732976],"properties":{"@id":"node/276263883","crossing":"marked","crossing:markings":"zebra","highway":"crossing","tactile_paving":"no"},"id":"node/276263883"},{"type":"Point","coordinates":[-15.4179949,28.0790604],"properties":{"@id":"node/276263891","highway":"crossing"},"id":"node/276263891"},{"type":"Point","coordinates":[-15.4189451,28.0825068],"properties":{"@id":"node/276263897","highway":"crossing"},"id":"node/276263897"},{"type":"Point","coordinates":[-15.4299035,28.1437372],"properties":{"@id":"node/319674708","crossing":"uncontrolled","highway":"crossing","tactile_paving":"yes"},"id":"node/319674708"},{"type":"Point","coordinates":[-15.4289171,28.1473665],"properties":{"@id":"node/319674715","crossing":"pedestrian_signals","crossing:island":"no","crossing:markings":"yes","highway":"crossing"},"id":"node/319674715"},{"type":"Point","coordinates":[-15.4138567,28.1043087],"properties":{"@id":"node/332417639","button_operated":"yes","crossing":"traffic_signals","highway":"crossing","tactile_paving":"yes","traffic_signals:sound":"no","traffic_signals:vibration":"no"},"id":"node/332417639"},{"type":"Point","coordinates":[-15.4149231,28.1063237],"properties":{"@id":"node/332417640","button_operated":"no","crossing":"traffic_signals","highway":"crossing","kerb":"flush","tactile_paving":"yes"},"id":"node/332417640"},{"type":"Point","coordinates":[-15.43008,28.1429436],"properties":{"@id":"node/337281156","crossing":"uncontrolled","highway":"crossing","tactile_paving":"yes"},"id":"node/337281156"},{"type":"Point","coordinates":[-15.4187153,28.0900377],"properties":{"@id":"node/338946197","highway":"crossing"},"id":"node/338946197"},{"type":"Point","coordinates":[-15.4196156,28.0865032],"properties":{"@id":"node/338946398","highway":"crossing"},"id":"node/338946398"},{"type":"Point","coordinates":[-15.4156702,28.0944058],"properties":{"@id":"node/344665325","highway":"crossing"},"id":"node/344665325"},{"type":"Point","coordinates":[-15.4151146,28.0952519],"properties":{"@id":"node/344665326","crossing":"uncontrolled","crossing:markings":"yes","highway":"crossing"},"id":"node/344665326"},{"type":"Point","coordinates":[-15.4283604,28.1270132],"properties":{"@id":"node/432683824","highway":"motorway_junction"},"id":"node/432683824"},{"type":"Point","coordinates":[-15.430069,28.1414693],"properties":{"@id":"node/435416731","highway":"traffic_signals"},"id":"node/435416731"},{"type":"Point","coordinates":[-15.4288678,28.135616],"properties":{"@id":"node/435646856","button_operated":"yes","crossing":"traffic_signals","highway":"crossing","kerb":"lowered","tactile_paving":"no"},"id":"node/435646856"},{"type":"Point","coordinates":[-15.4296277,28.1328915],"properties":{"@id":"node/435646861","highway":"traffic_signals"},"id":"node/435646861"},{"type":"Point","coordinates":[-15.4289927,28.1347795],"properties":{"@id":"node/435956949","description":"Semáforos Rotonda Base Naval","highway":"traffic_signals","traffic_signals":"traffic_lights"},"id":"node/435956949"},{"type":"Point","coordinates":[-15.4290309,28.1346496],"properties":{"@id":"node/435956958","bicycle":"yes","button_operated":"no","crossing":"traffic_signals","highway":"crossing","tactile_paving":"no"},"id":"node/435956958"},{"type":"Point","coordinates":[-15.4300838,28.141575],"properties":{"@id":"node/438753443","crossing":"traffic_signals","highway":"crossing"},"id":"node/438753443"},{"type":"Point","coordinates":[-15.4156868,28.1078778],"properties":{"@id":"node/442370957","crossing":"traffic_signals","highway":"crossing"},"id":"node/442370957"},{"type":"Point","coordinates":[-15.4160864,28.1090261],"properties":{"@id":"node/447084731","bench":"yes","bin":"yes","bus":"yes","departures_board":"timetable","highway":"bus_stop","lit":"yes","name":"Rafael Cabrera (San Telmo) Cod. 3","network":"Guaguas Municipales","operator":"Guaguas Municipales S.A.","public_transport":"platform","ref":"3","route_ref":"1;10;11;12;17;L1","shelter":"yes","tactile_paving":"yes","@relations":[{"role":"platform","rel":18185539,"reltags":{"colour":"#FF0000","from":"Hoya de La Plata","name":"Línea 12: Hoya de La Plata → Puerto","network":"Guaguas Municipales","public_transport:version":"2","ref":"12","route":"bus","to":"Puerto","type":"route"}}]},"id":"node/447084731"},{"type":"Point","coordinates":[-15.4265676,28.1481804],"properties":{"@id":"node/447581154","crossing":"uncontrolled","crossing:markings":"yes","highway":"crossing"},"id":"node/447581154"},{"type":"Point","coordinates":[-15.4143145,28.0958545],"properties":{"@id":"node/487100945","button_operated":"yes","crossing":"traffic_signals","highway":"crossing","kerb":"lowered","tactile_paving":"yes","traffic_signals:sound":"no","traffic_signals:vibration":"no"},"id":"node/487100945"},{"type":"Point","coordinates":[-15.4136576,28.0945038],"properties":{"@id":"node/487100951","crossing":"uncontrolled","crossing:markings":"yes","highway":"crossing"},"id":"node/487100951"},{"type":"Point","coordinates":[-15.4136536,28.0943153],"properties":{"@id":"node/487100952","highway":"give_way"},"id":"node/487100952"},{"type":"Point","coordinates":[-15.4120096,28.1013496],"properties":{"@id":"node/762746241","highway":"motorway_junction"},"id":"node/762746241"},{"type":"Point","coordinates":[-15.4287007,28.1477699],"properties":{"@id":"node/1338123338","crossing":"marked","crossing:island":"no","crossing:markings":"yes","highway":"crossing","kerb":"flush"},"id":"node/1338123338"},{"type":"Point","coordinates":[-15.4278463,28.1479535],"properties":{"@id":"node/1338123390","crossing:island":"yes","crossing:markings":"yes","crossing:signals":"no","highway":"crossing","kerb":"lowered","tactile_paving":"yes"},"id":"node/1338123390"},{"type":"Point","coordinates":[-15.4280992,28.1478979],"properties":{"@id":"node/1338242033","bench":"yes","bin":"yes","bus":"yes","highway":"bus_stop","lit":"yes","name":"Agustín Millares Sall (edificio Mapfre)","operator":"Guaguas Municipales S.A.","public_transport":"platform","ref":"29","shelter":"yes","tactile_paving":"yes","@relations":[{"role":"platform","rel":18185539,"reltags":{"colour":"#FF0000","from":"Hoya de La Plata","name":"Línea 12: Hoya de La Plata → Puerto","network":"Guaguas Municipales","public_transport:version":"2","ref":"12","route":"bus","to":"Puerto","type":"route"}}]},"id":"node/1338242033"},{"type":"Point","coordinates":[-15.429372,28.1458196],"properties":{"@id":"node/1339153073","bus":"yes","highway":"bus_stop","name":"Woermann","operator":"Guaguas Municipales S.A.","public_transport":"platform","ref":"27","shelter":"yes","@relations":[{"role":"platform","rel":18185539,"reltags":{"colour":"#FF0000","from":"Hoya de La Plata","name":"Línea 12: Hoya de La Plata → Puerto","network":"Guaguas Municipales","public_transport:version":"2","ref":"12","route":"bus","to":"Puerto","type":"route"}}]},"id":"node/1339153073"},{"type":"Point","coordinates":[-15.4299793,28.1414738],"properties":{"@id":"node/1814203900","button_operated":"yes","crossing":"traffic_signals","highway":"crossing","tactile_paving":"yes","traffic_signals:sound":"no","traffic_signals:vibration":"no"},"id":"node/1814203900"},{"type":"Point","coordinates":[-15.4256137,28.1491544],"properties":{"@id":"node/1827499254","highway":"crossing"},"id":"node/1827499254"},{"type":"Point","coordinates":[-15.4225617,28.1497091],"properties":{"@id":"node/1827499256","highway":"crossing"},"id":"node/1827499256"},{"type":"Point","coordinates":[-15.4235259,28.1210308],"properties":{"@id":"node/1873943423","highway":"traffic_signals"},"id":"node/1873943423"},{"type":"Point","coordinates":[-15.4236308,28.121107],"properties":{"@id":"node/1873943428","button_operated":"no","crossing":"traffic_signals","highway":"crossing","kerb":"lowered"},"id":"node/1873943428"},{"type":"Point","coordinates":[-15.4239269,28.1213477],"properties":{"@id":"node/1873943469","bus":"yes","name":"Juan XXIII","public_transport":"stop_position"},"id":"node/1873943469"},{"type":"Point","coordinates":[-15.4233873,28.1209368],"properties":{"@id":"node/1873943525","crossing":"traffic_signals","highway":"crossing"},"id":"node/1873943525"},{"type":"Point","coordinates":[-15.4137171,28.0936967],"properties":{"@id":"node/1877027997","highway":"crossing"},"id":"node/1877027997"},{"type":"Point","coordinates":[-15.417862,28.0708923],"properties":{"@id":"node/1877028110","highway":"give_way"},"id":"node/1877028110"},{"type":"Point","coordinates":[-15.4179595,28.0705416],"properties":{"@id":"node/1877028140","highway":"crossing"},"id":"node/1877028140"},{"type":"Point","coordinates":[-15.4298121,28.1311942],"properties":{"@id":"node/1877604473","highway":"motorway_junction"},"id":"node/1877604473"},{"type":"Point","coordinates":[-15.4225023,28.1500383],"properties":{"@id":"node/1877878484","highway":"crossing"},"id":"node/1877878484"},{"type":"Point","coordinates":[-15.4207098,28.118565],"properties":{"@id":"node/1888139442","highway":"motorway_junction"},"id":"node/1888139442"},{"type":"Point","coordinates":[-15.4176284,28.0723766],"properties":{"@id":"node/1904135777","highway":"crossing"},"id":"node/1904135777"},{"type":"Point","coordinates":[-15.4175145,28.0725862],"properties":{"@id":"node/1904135782","highway":"give_way"},"id":"node/1904135782"},{"type":"Point","coordinates":[-15.4221927,28.1502443],"properties":{"@id":"node/1907731764","highway":"crossing"},"id":"node/1907731764"},{"type":"Point","coordinates":[-15.417938,28.0701629],"properties":{"@id":"node/1913379560","highway":"give_way"},"id":"node/1913379560"},{"type":"Point","coordinates":[-15.4163489,28.1095393],"properties":{"@id":"node/1923584129","button_operated":"no","check_date:tactile_paving":"2022-12-19","crossing":"traffic_signals","highway":"crossing","tactile_paving":"no","traffic_signals:sound":"no","traffic_signals:vibration":"no"},"id":"node/1923584129"},{"type":"Point","coordinates":[-15.4252018,28.149179],"properties":{"@id":"node/1932221793","bench":"yes","bin":"no","bus":"yes","highway":"bus_stop","lit":"yes","name":"Juan Rejón (Castillo de La Luz)","operator":"Guaguas Municipales S.A.","public_transport":"platform","ref":"31","shelter":"no","tactile_paving":"no","@relations":[{"role":"platform","rel":18185539,"reltags":{"colour":"#FF0000","from":"Hoya de La Plata","name":"Línea 12: Hoya de La Plata → Puerto","network":"Guaguas Municipales","public_transport:version":"2","ref":"12","route":"bus","to":"Puerto","type":"route"}}]},"id":"node/1932221793"},{"type":"Point","coordinates":[-15.4296066,28.1329586],"properties":{"@id":"node/2053080688","button_operated":"yes","check_date:crossing":"2023-12-11","crossing":"traffic_signals","highway":"crossing","tactile_paving":"no"},"id":"node/2053080688"},{"type":"Point","coordinates":[-15.4180276,28.1150072],"properties":{"@id":"node/2173326716","highway":"speed_camera","maxspeed":"80","note":"F080 ZEQU Av. Canarias Pabellon Insular Deportes DIR Norte CL"},"id":"node/2173326716"},{"type":"Point","coordinates":[-15.4137232,28.0955267],"properties":{"@id":"node/2315780178","crossing":"traffic_signals","highway":"crossing"},"id":"node/2315780178"},{"type":"Point","coordinates":[-15.4150888,28.0957511],"properties":{"@id":"node/2315788895","crossing":"uncontrolled","crossing:markings":"yes","highway":"crossing"},"id":"node/2315788895"},{"type":"Point","coordinates":[-15.4195607,28.0879114],"properties":{"@id":"node/2315939918","highway":"crossing"},"id":"node/2315939918"},{"type":"Point","coordinates":[-15.415049,28.0958332],"properties":{"@id":"node/2315939927","highway":"give_way"},"id":"node/2315939927"},{"type":"Point","coordinates":[-15.4180027,28.0860489],"properties":{"@id":"node/2315939932","crossing":"marked","crossing:markings":"yes","highway":"crossing"},"id":"node/2315939932"},{"type":"Point","coordinates":[-15.4289026,28.1474062],"properties":{"@id":"node/3188243100","crossing":"marked","crossing:island":"no","highway":"crossing","tactile_paving":"yes"},"id":"node/3188243100"},{"type":"Point","coordinates":[-15.4273879,28.1480296],"properties":{"@id":"node/3188243102","highway":"crossing"},"id":"node/3188243102"},{"type":"Point","coordinates":[-15.4234844,28.149549],"properties":{"@id":"node/3188243105","crossing":"traffic_signals","highway":"crossing","tactile_paving":"yes"},"id":"node/3188243105"},{"type":"Point","coordinates":[-15.422104,28.1499624],"properties":{"@id":"node/3188243110","highway":"crossing"},"id":"node/3188243110"},{"type":"Point","coordinates":[-15.4213852,28.1500908],"properties":{"@id":"node/3188243113","highway":"crossing"},"id":"node/3188243113"},{"type":"Point","coordinates":[-15.4214282,28.1503801],"properties":{"@id":"node/3188243116","highway":"crossing"},"id":"node/3188243116"},{"type":"Point","coordinates":[-15.4191229,28.0847993],"properties":{"@id":"node/3188464947","crossing":"marked","crossing:markings":"yes","highway":"crossing"},"id":"node/3188464947"},{"type":"Point","coordinates":[-15.4190185,28.0849192],"properties":{"@id":"node/3300967981","crossing":"marked","crossing:markings":"yes","highway":"crossing"},"id":"node/3300967981"},{"type":"Point","coordinates":[-15.4172377,28.0844097],"properties":{"@id":"node/3307538236","highway":"crossing"},"id":"node/3307538236"},{"type":"Point","coordinates":[-15.4177915,28.0845506],"properties":{"@id":"node/3307538239","highway":"crossing"},"id":"node/3307538239"},{"type":"Point","coordinates":[-15.4171374,28.0843903],"properties":{"@id":"node/3307538241","highway":"give_way"},"id":"node/3307538241"},{"type":"Point","coordinates":[-15.4170976,28.0850251],"properties":{"@id":"node/4228112889","bus":"yes","highway":"bus_stop","name":"Alicante (colegio Islas Canarias)","operator":"Guaguas Municipales S.A.","public_transport":"platform","ref":"122","shelter":"yes","@relations":[{"role":"platform","rel":18185539,"reltags":{"colour":"#FF0000","from":"Hoya de La Plata","name":"Línea 12: Hoya de La Plata → Puerto","network":"Guaguas Municipales","public_transport:version":"2","ref":"12","route":"bus","to":"Puerto","type":"route"}}]},"id":"node/4228112889"},{"type":"Point","coordinates":[-15.4151332,28.1067512],"properties":{"@id":"node/4314446662","button_operated":"no","crossing":"traffic_signals","highway":"crossing","tactile_paving":"yes"},"id":"node/4314446662"},{"type":"Point","coordinates":[-15.4145471,28.0914831],"properties":{"@id":"node/4325236335","crossing":"uncontrolled","highway":"crossing","tactile_paving":"yes"},"id":"node/4325236335"},{"type":"Point","coordinates":[-15.4138611,28.092538],"properties":{"@id":"node/4325236344","highway":"crossing"},"id":"node/4325236344"},{"type":"Point","coordinates":[-15.4139017,28.0926552],"properties":{"@id":"node/4325236345","bus":"yes","highway":"bus_stop","name":"Alicante (C.S. San José)","operator":"Guaguas Municipales S.A.","public_transport":"platform","ref":"610","@relations":[{"role":"platform","rel":18185539,"reltags":{"colour":"#FF0000","from":"Hoya de La Plata","name":"Línea 12: Hoya de La Plata → Puerto","network":"Guaguas Municipales","public_transport:version":"2","ref":"12","route":"bus","to":"Puerto","type":"route"}}]},"id":"node/4325236345"},{"type":"Point","coordinates":[-15.416993,28.0926959],"properties":{"@id":"node/4325236346","highway":"crossing"},"id":"node/4325236346"},{"type":"Point","coordinates":[-15.4165293,28.0933896],"properties":{"@id":"node/4325236354","highway":"crossing"},"id":"node/4325236354"},{"type":"Point","coordinates":[-15.4137363,28.0949517],"properties":{"@id":"node/4325236366","bus":"yes","highway":"bus_stop","name":"Eufemiano Jurado (Juzgados)","operator":"Guaguas Municipales S.A.","public_transport":"platform","ref":"78","@relations":[{"role":"platform","rel":18185539,"reltags":{"colour":"#FF0000","from":"Hoya de La Plata","name":"Línea 12: Hoya de La Plata → Puerto","network":"Guaguas Municipales","public_transport:version":"2","ref":"12","route":"bus","to":"Puerto","type":"route"}}]},"id":"node/4325236366"},{"type":"Point","coordinates":[-15.4151057,28.0951406],"properties":{"@id":"node/4325236368","bus":"yes","highway":"bus_stop","name":"Córdoba (Bomberos Vegueta)","operator":"Guaguas Municipales S.A.","public_transport":"platform","ref":"110","@relations":[{"role":"platform","rel":18185539,"reltags":{"colour":"#FF0000","from":"Hoya de La Plata","name":"Línea 12: Hoya de La Plata → Puerto","network":"Guaguas Municipales","public_transport:version":"2","ref":"12","route":"bus","to":"Puerto","type":"route"}}]},"id":"node/4325236368"},{"type":"Point","coordinates":[-15.4171748,28.0851328],"properties":{"@id":"node/4327964715","crossing":"marked","crossing:markings":"yes","highway":"crossing"},"id":"node/4327964715"},{"type":"Point","coordinates":[-15.4178953,28.0860714],"properties":{"@id":"node/4327964716","bus":"yes","highway":"bus_stop","name":"Córdoba, 71","operator":"Guaguas Municipales S.A.","public_transport":"platform","ref":"120","@relations":[{"role":"platform","rel":18185539,"reltags":{"colour":"#FF0000","from":"Hoya de La Plata","name":"Línea 12: Hoya de La Plata → Puerto","network":"Guaguas Municipales","public_transport:version":"2","ref":"12","route":"bus","to":"Puerto","type":"route"}}]},"id":"node/4327964716"},{"type":"Point","coordinates":[-15.4180748,28.0908474],"properties":{"@id":"node/4327964773","bus":"yes","highway":"bus_stop","name":"Córdoba, 29","operator":"Guaguas Municipales S.A.","public_transport":"platform","ref":"116","shelter":"yes","@relations":[{"role":"platform","rel":18185539,"reltags":{"colour":"#FF0000","from":"Hoya de La Plata","name":"Línea 12: Hoya de La Plata → Puerto","network":"Guaguas Municipales","public_transport:version":"2","ref":"12","route":"bus","to":"Puerto","type":"route"}}]},"id":"node/4327964773"},{"type":"Point","coordinates":[-15.4176529,28.0915484],"properties":{"@id":"node/4327964779","highway":"crossing"},"id":"node/4327964779"},{"type":"Point","coordinates":[-15.4175114,28.0772754],"properties":{"@id":"node/4328112787","highway":"crossing"},"id":"node/4328112787"},{"type":"Point","coordinates":[-15.4173508,28.076878],"properties":{"@id":"node/4328112990","bus":"yes","highway":"bus_stop","name":"Ciudad Deportiva Gran Canaria","operator":"Guaguas Municipales S.A.","public_transport":"platform","ref":"98","@relations":[{"role":"platform","rel":18185539,"reltags":{"colour":"#FF0000","from":"Hoya de La Plata","name":"Línea 12: Hoya de La Plata → Puerto","network":"Guaguas Municipales","public_transport:version":"2","ref":"12","route":"bus","to":"Puerto","type":"route"}}]},"id":"node/4328112990"},{"type":"Point","coordinates":[-15.4176484,28.0777682],"properties":{"@id":"node/4328112992","highway":"crossing"},"id":"node/4328112992"},{"type":"Point","coordinates":[-15.4183082,28.0801941],"properties":{"@id":"node/4328113025","highway":"crossing"},"id":"node/4328113025"},{"type":"Point","coordinates":[-15.418297,28.0804376],"properties":{"@id":"node/4328113029","bus":"yes","highway":"bus_stop","name":"Blas Cabrera Felipe (parking hosp. Materno Insular)","operator":"Guaguas Municipales S.A.","public_transport":"platform","ref":"96","@relations":[{"role":"platform","rel":18185539,"reltags":{"colour":"#FF0000","from":"Hoya de La Plata","name":"Línea 12: Hoya de La Plata → Puerto","network":"Guaguas Municipales","public_transport:version":"2","ref":"12","route":"bus","to":"Puerto","type":"route"}}]},"id":"node/4328113029"},{"type":"Point","coordinates":[-15.4185529,28.0810812],"properties":{"@id":"node/4328113035","highway":"crossing"},"id":"node/4328113035"},{"type":"Point","coordinates":[-15.4187313,28.082046],"properties":{"@id":"node/4328113047","bus":"yes","highway":"bus_stop","name":"Blas Cabrera Felipe (iglesia Sta. Clara)","operator":"Guaguas Municipales S.A.","public_transport":"platform","ref":"94","@relations":[{"role":"platform","rel":18185539,"reltags":{"colour":"#FF0000","from":"Hoya de La Plata","name":"Línea 12: Hoya de La Plata → Puerto","network":"Guaguas Municipales","public_transport:version":"2","ref":"12","route":"bus","to":"Puerto","type":"route"}}]},"id":"node/4328113047"},{"type":"Point","coordinates":[-15.4190512,28.0846674],"properties":{"@id":"node/4328113077","bus":"yes","highway":"bus_stop","name":"Blas Cabrera Felipe, frente 306","operator":"Guaguas Municipales S.A.","public_transport":"platform","ref":"92","@relations":[{"role":"platform","rel":18185539,"reltags":{"colour":"#FF0000","from":"Hoya de La Plata","name":"Línea 12: Hoya de La Plata → Puerto","network":"Guaguas Municipales","public_transport:version":"2","ref":"12","route":"bus","to":"Puerto","type":"route"}}]},"id":"node/4328113077"},{"type":"Point","coordinates":[-15.4173168,28.0741896],"properties":{"@id":"node/4329170125","highway":"crossing"},"id":"node/4329170125"},{"type":"Point","coordinates":[-15.417183,28.0744895],"properties":{"@id":"node/4329170134","bus":"yes","highway":"bus_stop","name":"Blas Cabrera Felipe, frente 16","operator":"Guaguas Municipales S.A.","public_transport":"platform","ref":"100","@relations":[{"role":"platform","rel":18185539,"reltags":{"colour":"#FF0000","from":"Hoya de La Plata","name":"Línea 12: Hoya de La Plata → Puerto","network":"Guaguas Municipales","public_transport:version":"2","ref":"12","route":"bus","to":"Puerto","type":"route"}}]},"id":"node/4329170134"},{"type":"Point","coordinates":[-15.4172239,28.0746346],"properties":{"@id":"node/4329170135","crossing:markings":"zebra","highway":"crossing"},"id":"node/4329170135"},{"type":"Point","coordinates":[-15.4172357,28.0761433],"properties":{"@id":"node/4329170156","highway":"crossing"},"id":"node/4329170156"},{"type":"Point","coordinates":[-15.4175362,28.0724576],"properties":{"@id":"node/4330515402","bus":"yes","highway":"bus_stop","name":"Blas Cabrera Felipe (Carrefour)","operator":"Guaguas Municipales S.A.","public_transport":"platform","ref":"102","@relations":[{"role":"platform","rel":18185539,"reltags":{"colour":"#FF0000","from":"Hoya de La Plata","name":"Línea 12: Hoya de La Plata → Puerto","network":"Guaguas Municipales","public_transport:version":"2","ref":"12","route":"bus","to":"Puerto","type":"route"}}]},"id":"node/4330515402"},{"type":"Point","coordinates":[-15.4300867,28.1420159],"properties":{"@id":"node/5191404376","bus":"yes","highway":"bus_stop","name":"Eduardo Benot, frente 5","operator":"Guaguas Municipales S.A.","public_transport":"platform","ref":"25","shelter":"yes","@relations":[{"role":"platform","rel":18185539,"reltags":{"colour":"#FF0000","from":"Hoya de La Plata","name":"Línea 12: Hoya de La Plata → Puerto","network":"Guaguas Municipales","public_transport:version":"2","ref":"12","route":"bus","to":"Puerto","type":"route"}}]},"id":"node/5191404376"},{"type":"Point","coordinates":[-15.4296006,28.1328595],"properties":{"@id":"node/5204855171","bench":"yes","bin":"yes","bus":"yes","check_date:shelter":"2022-12-12","highway":"bus_stop","lit":"yes","name":"León y Castillo (club Náutico)","operator":"Guaguas Municipales S.A.","public_transport":"platform","ref":"441","route_ref":"1;12;17;L1","shelter":"no","tactile_paving":"no","@relations":[{"role":"platform","rel":18185539,"reltags":{"colour":"#FF0000","from":"Hoya de La Plata","name":"Línea 12: Hoya de La Plata → Puerto","network":"Guaguas Municipales","public_transport:version":"2","ref":"12","route":"bus","to":"Puerto","type":"route"}}]},"id":"node/5204855171"},{"type":"Point","coordinates":[-15.4301329,28.1424264],"properties":{"@id":"node/5322329111","crossing":"uncontrolled","highway":"crossing","tactile_paving":"yes"},"id":"node/5322329111"},{"type":"Point","coordinates":[-15.4225243,28.1501679],"properties":{"@id":"node/5975904107","highway":"give_way"},"id":"node/5975904107"},{"type":"Point","coordinates":[-15.4295733,28.14147],"properties":{"@id":"node/6315081516","crossing":"marked","crossing:markings":"yes","highway":"crossing","kerb":"flush","source":"GRAFCAN Expresa - Islas Canarias","tactile_paving":"yes"},"id":"node/6315081516"},{"type":"Point","coordinates":[-15.4139764,28.0957776],"properties":{"@id":"node/6553497867","highway":"give_way"},"id":"node/6553497867"},{"type":"Point","coordinates":[-15.4171743,28.0924159],"properties":{"@id":"node/6557958767","direction":"backward","highway":"give_way","traffic_sign":"ES:R1"},"id":"node/6557958767"},{"type":"Point","coordinates":[-15.4147879,28.0911654],"properties":{"@id":"node/6558095280","highway":"give_way"},"id":"node/6558095280"},{"type":"Point","coordinates":[-15.4161361,28.0938601],"properties":{"@id":"node/6566227807","highway":"give_way"},"id":"node/6566227807"},{"type":"Point","coordinates":[-15.4221737,28.1499516],"properties":{"@id":"node/7726688513","bus":"yes","public_transport":"stop_position","shelter":"yes"},"id":"node/7726688513"},{"type":"Point","coordinates":[-15.4214935,28.1503673],"properties":{"@id":"node/7726688516","bus":"yes","public_transport":"stop_position","shelter":"yes"},"id":"node/7726688516"},{"type":"Point","coordinates":[-15.4219569,28.1502851],"properties":{"@id":"node/7726688518","bus":"yes","public_transport":"stop_position","shelter":"yes"},"id":"node/7726688518"},{"type":"Point","coordinates":[-15.4182677,28.0906683],"properties":{"@id":"node/7815482534","highway":"crossing"},"id":"node/7815482534"},{"type":"Point","coordinates":[-15.4171954,28.0859835],"properties":{"@id":"node/7837141778","highway":"give_way"},"id":"node/7837141778"},{"type":"Point","coordinates":[-15.4171045,28.0846501],"properties":{"@id":"node/7846817090","direction":"backward","highway":"give_way","traffic_sign":"ES:R1"},"id":"node/7846817090"},{"type":"Point","coordinates":[-15.4150336,28.0958633],"properties":{"@id":"node/8656258742","crossing:signals":"no","highway":"crossing"},"id":"node/8656258742"},{"type":"Point","coordinates":[-15.4189613,28.084935],"properties":{"@id":"node/9697920151","highway":"crossing"},"id":"node/9697920151"},{"type":"Point","coordinates":[-15.4295432,28.1414713],"properties":{"@id":"node/10582561992","crossing":"marked","crossing:markings":"yes","highway":"crossing"},"id":"node/10582561992"},{"type":"Point","coordinates":[-15.4138193,28.1042517],"properties":{"@id":"node/10833570174","bus":"yes","name":"Teatro Pérez Galdós","public_transport":"stop_position","ref":"1082"},"id":"node/10833570174"},{"type":"Point","coordinates":[-15.4296352,28.1328646],"properties":{"@id":"node/11507020704","bus":"yes","name":"León y Castillo","public_transport":"stop_position"},"id":"node/11507020704"},{"type":"Point","coordinates":[-15.4161355,28.108996],"properties":{"@id":"node/11507250970","bus":"yes","name":"Rafael Cabrera (San Telmo) Cod. 3","public_transport":"stop_position"},"id":"node/11507250970"},{"type":"Point","coordinates":[-15.4287049,28.1400348],"properties":{"@id":"node/11739196103","bench":"yes","bus":"yes","highway":"bus_stop","layer":"-2","level":"-2","long_name":"Estación de Guaguas Santa Catalina Andén 10","name":"Andén 10","public_transport":"platform","@relations":[{"role":"platform","rel":18185539,"reltags":{"colour":"#FF0000","from":"Hoya de La Plata","name":"Línea 12: Hoya de La Plata → Puerto","network":"Guaguas Municipales","public_transport:version":"2","ref":"12","route":"bus","to":"Puerto","type":"route"}}]},"id":"node/11739196103"},{"type":"Point","coordinates":[-15.4137441,28.1042901],"properties":{"@id":"node/12082745238","bus":"yes","highway":"bus_stop","name":"Teatro Pérez Galdos","network":"Guaguas Municipales","operator":"Guaguas Municipales S.A.","public_transport":"platform","ref":"1082","@relations":[{"role":"platform","rel":18185539,"reltags":{"colour":"#FF0000","from":"Hoya de La Plata","name":"Línea 12: Hoya de La Plata → Puerto","network":"Guaguas Municipales","public_transport:version":"2","ref":"12","route":"bus","to":"Puerto","type":"route"}}]},"id":"node/12082745238"},{"type":"Point","coordinates":[-15.4221918,28.1500308],"properties":{"@id":"node/12269264945","bus":"yes","highway":"bus_stop","name":"Manuel Becerra (Puerto)","public_transport":"platform","shelter":"no","@relations":[{"role":"platform","rel":18185539,"reltags":{"colour":"#FF0000","from":"Hoya de La Plata","name":"Línea 12: Hoya de La Plata → Puerto","network":"Guaguas Municipales","public_transport:version":"2","ref":"12","route":"bus","to":"Puerto","type":"route"}}]},"id":"node/12269264945"},{"type":"Point","coordinates":[-15.4217243,28.150326],"properties":{"@id":"node/12269264955","bus":"yes","public_transport":"stop_position","shelter":"yes"},"id":"node/12269264955"},{"type":"Point","coordinates":[-15.4238424,28.1213772],"properties":{"@id":"node/12272079363","bench":"yes","bin":"yes","bus":"yes","highway":"bus_stop","lit":"yes","name":"Av. Marítima del Sur (Juan XXIII)","operator":"Guaguas Municipales S.A.","public_transport":"platform","ref":"35","shelter":"yes","tactile_paving":"no","@relations":[{"role":"platform","rel":18185539,"reltags":{"colour":"#FF0000","from":"Hoya de La Plata","name":"Línea 12: Hoya de La Plata → Puerto","network":"Guaguas Municipales","public_transport:version":"2","ref":"12","route":"bus","to":"Puerto","type":"route"}}]},"id":"node/12272079363"},{"type":"Point","coordinates":[-15.4162498,28.0937585],"properties":{"@id":"node/12272079364","bus":"yes","highway":"bus_stop","name":"Córdoba, 19","operator":"Guaguas Municipales S.A.","public_transport":"platform","ref":"114","shelter":"yes","@relations":[{"role":"platform","rel":18185539,"reltags":{"colour":"#FF0000","from":"Hoya de La Plata","name":"Línea 12: Hoya de La Plata → Puerto","network":"Guaguas Municipales","public_transport:version":"2","ref":"12","route":"bus","to":"Puerto","type":"route"}}]},"id":"node/12272079364"},{"type":"Point","coordinates":[-15.4194322,28.0881127],"properties":{"@id":"node/12272079365","bus":"yes","highway":"bus_stop","name":"Córdoba, 49","operator":"Guaguas Municipales S.A.","public_transport":"platform","ref":"118","shelter":"yes","@relations":[{"role":"platform","rel":18185539,"reltags":{"colour":"#FF0000","from":"Hoya de La Plata","name":"Línea 12: Hoya de La Plata → Puerto","network":"Guaguas Municipales","public_transport:version":"2","ref":"12","route":"bus","to":"Puerto","type":"route"}}]},"id":"node/12272079365"},{"type":"Point","coordinates":[-15.418079,28.0697414],"properties":{"@id":"node/12272079370","bus":"yes","highway":"bus_stop","name":"Hoya de La Plata","public_transport":"platform","ref":"934","@relations":[{"role":"platform","rel":18185539,"reltags":{"colour":"#FF0000","from":"Hoya de La Plata","name":"Línea 12: Hoya de La Plata → Puerto","network":"Guaguas Municipales","public_transport:version":"2","ref":"12","route":"bus","to":"Puerto","type":"route"}}]},"id":"node/12272079370"},{"type":"Point","coordinates":[-15.4214474,28.1500811],"properties":{"@id":"node/12277569019","bus":"yes","public_transport":"stop_position","shelter":"yes"},"id":"node/12277569019"},{"type":"Point","coordinates":[-15.4218871,28.1500002],"properties":{"@id":"node/12277569020","bus":"yes","public_transport":"stop_position","shelter":"yes"},"id":"node/12277569020"},{"type":"Point","coordinates":[-15.4173397,28.0766243],"properties":{"@id":"node/12281863193","highway":"crossing"},"id":"node/12281863193"},{"type":"Point","coordinates":[-15.4216648,28.1500414],"properties":{"@id":"node/12290220641","bus":"yes","public_transport":"stop_position","shelter":"yes"},"id":"node/12290220641"},{"type":"Point","coordinates":[-15.4119443,28.0965052],"properties":{"@id":"node/13201063623","distance":"3","highway":"milestone","ref":"GC-1 AM"},"id":"node/13201063623"}]}}}